{"fetched_at":"2026-03-29T02:12:04Z","count":15717,"tles":[{"name":"STARLINK-30239","line1":"1 57291U 23096B   26086.44371890 -.00004736  00000+0 -16274-3 0  9996","line2":"2 57291  43.0011 122.8259 0001369 258.4782 101.5916 15.27565919150334","category":"Starlink"}]}